CTC1_L_00241016-03
1 10062U 25260PV  26075.70032407  .00000000  00000+0  00000-0 0  9996
2 10062  90.0000 180.0000 0000000   0.0000   0.0000 15.59190035    18
CTC1_L_00241016-04
1 10063U 25187VF  26075.70032407  .00000000  00000+0  00000-0 0  9995
2 10063  90.0000 180.0000 0000000   0.0000  90.0000 15.59190035    18
CTC1_L_00241017-01
1 10064U 25989VS  26075.70032407  .00000000  00000+0  00000-0 0  9996
2 10064  90.0000 192.0000 0000000   0.0000 192.0000 15.59190035    15
CTC1_L_00241017-02
1 10065U 23922FD  26075.70032407  .00000000  00000+0  00000-0 0  9992
2 10065  90.0000 192.0000 0000000   0.0000 282.0000 15.59190035    16
CTC1_L_00241017-03
1 10066U 24957LN  26075.70032407  .00000000  00000+0  00000-0 0  9992
2 10066  90.0000 192.0000 0000000   0.0000  12.0000 15.59190035    18
CTC1_L_00241017-04
1 10067U 22763AZ  26075.70032407  .00000000  00000+0  00000-0 0  9996
2 10067  90.0000 192.0000 0000000   0.0000 102.0000 15.59190035    19
CTC1_L_00241018-01
1 10068U 26705QW  26075.70032407  .00000000  00000+0  00000-0 0  9997
2 10068  90.0000 204.0000 0000000   0.0000 204.0000 15.59190035    17
CTC1_L_00241018-02
1 10069U 22482SQ  26075.70032407  .00000000  00000+0  00000-0 0  9996
2 10069  90.0000 204.0000 0000000   0.0000 294.0000 15.59190035    17
CTC1_L_00241018-03
1 10070U 25043WW  26075.70032407  .00000000  00000+0  00000-0 0  9994
2 10070  90.0000 204.0000 0000000   0.0000  24.0000 15.59190035    10
CTC1_L_00241018-04
1 10071U 26915YL  26075.70032407  .00000000  00000+0  00000-0 0  9994
2 10071  90.0000 204.0000 0000000   0.0000 114.0000 15.59190035    11
CTC1_L_00241019-01
1 10072U 25048XF  26075.70032407  .00000000  00000+0  00000-0 0  9991
2 10072  90.0000 216.0000 0000000   0.0000 216.0000 15.59190035    18
CTC1_L_00241019-02
1 10073U 23428VS  26075.70032407  .00000000  00000+0  00000-0 0  9992
2 10073  90.0000 216.0000 0000000   0.0000 306.0000 15.59190035    19
CTC1_L_00241019-03
1 10074U 24663A   26075.70032407  .00000000  00000+0  00000-0 0  9995
2 10074  90.0000 216.0000 0000000   0.0000  36.0000 15.59190035    10
CTC1_L_00241019-04
1 10075U 25957NA  26075.70032407  .00000000  00000+0  00000-0 0  9993
2 10075  90.0000 216.0000 0000000   0.0000 126.0000 15.59190035    11
CTC1_L_00241020-01
1 10076U 25072IQ  26075.70032407  .00000000  00000+0  00000-0 0  9992
2 10076  90.0000 228.0000 0000000   0.0000 228.0000 15.59190035    18
CTC1_L_00241020-02
1 10077U 23803EI  26075.70032407  .00000000  00000+0  00000-0 0  9993
2 10077  90.0000 228.0000 0000000   0.0000 318.0000 15.59190035    19
CTC1_L_00241020-03
1 10078U 25870GC  26075.70032407  .00000000  00000+0  00000-0 0  9990
2 10078  90.0000 228.0000 0000000   0.0000  48.0000 15.59190035    10
CTC1_L_00241020-04
1 10079U 22948JX  26075.70032407  .00000000  00000+0  00000-0 0  9994
2 10079  90.0000 228.0000 0000000   0.0000 138.0000 15.59190035    11
CTC1_L_00241021-01
1 10080U 24239RP  26075.70032407  .00000000  00000+0  00000-0 0  9991
2 10080  90.0000 240.0000 0000000   0.0000 240.0000 15.59190035    11
CTC1_L_00241021-02
1 10081U 23537VD  26075.70032407  .00000000  00000+0  00000-0 0  9992
2 10081  90.0000 240.0000 0000000   0.0000 330.0000 15.59190035    12
CTC1_L_00241021-03
1 10082U 24954AQ  26075.70032407  .00000000  00000+0  00000-0 0  9997
2 10082  90.0000 240.0000 0000000   0.0000  60.0000 15.59190035    13
CTC1_L_00241021-04
1 10083U 23961GW  26075.70032407  .00000000  00000+0  00000-0 0  9995
2 10083  90.0000 240.0000 0000000   0.0000 150.0000 15.59190035    14
CTC1_L_00241022-01
1 10084U 25698XC  26075.70032407  .00000000  00000+0  00000-0 0  9995
2 10084  90.0000 252.0000 0000000   0.0000 252.0000 15.59190035    11
CTC1_L_00241022-02
1 10085U 26154FJ  26075.70032407  .00000000  00000+0  00000-0 0  9994
2 10085  90.0000 252.0000 0000000   0.0000 342.0000 15.59190035    12
CTC1_L_00241022-03
1 10086U 22893EW  26075.70032407  .00000000  00000+0  00000-0 0  9991
2 10086  90.0000 252.0000 0000000   0.0000  72.0000 15.59190035    13
CTC1_L_00241022-04
1 10087U 24643ZF  26075.70032407  .00000000  00000+0  00000-0 0  9997
2 10087  90.0000 252.0000 0000000   0.0000 162.0000 15.59190035    14
CTC1_L_00241023-01
1 10088U 24071ID  26075.70032407  .00000000  00000+0  00000-0 0  9993
2 10088  90.0000 264.0000 0000000   0.0000 264.0000 15.59190035    11
CTC1_L_00241023-02
1 10089U 24651Y   26075.70032407  .00000000  00000+0  00000-0 0  9998
2 10089  90.0000 264.0000 0000000   0.0000 354.0000 15.59190035    12
CTC1_L_00241023-03
1 10090U 24507QN  26075.70032407  .00000000  00000+0  00000-0 0  9990
2 10090  90.0000 264.0000 0000000   0.0000  84.0000 15.59190035    14
CTC1_L_00241023-04
1 10091U 25844TH  26075.70032407  .00000000  00000+0  00000-0 0  9996
2 10091  90.0000 264.0000 0000000   0.0000 174.0000 15.59190035    15
CTC1_L_00241024-01
1 10092U 24327WV  26075.70032407  .00000000  00000+0  00000-0 0  9992
2 10092  90.0000 276.0000 0000000   0.0000 276.0000 15.59190035    12
CTC1_L_00241024-02
1 10093U 22794RG  26075.70032407  .00000000  00000+0  00000-0 0  9999
2 10093  90.0000 276.0000 0000000   0.0000   6.0000 15.59190035    14
CTC1_L_00241024-03
1 10094U 25307NA  26075.70032407  .00000000  00000+0  00000-0 0  9993
2 10094  90.0000 276.0000 0000000   0.0000  96.0000 15.59190035    14
CTC1_L_00241024-04
1 10095U 26970EP  26075.70032407  .00000000  00000+0  00000-0 0  9991
2 10095  90.0000 276.0000 0000000   0.0000 186.0000 15.59190035    15
CTC1_L_00241025-01
1 10096U 23691JB  26075.70032407  .00000000  00000+0  00000-0 0  9999
2 10096  90.0000 288.0000 0000000   0.0000 288.0000 15.59190035    12
CTC1_L_00241025-02
1 10097U 22018GU  26075.70032407  .00000000  00000+0  00000-0 0  9992
2 10097  90.0000 288.0000 0000000   0.0000  18.0000 15.59190035    14
CTC1_L_00241025-03
1 10098U 25237QR  26075.70032407  .00000000  00000+0  00000-0 0  9999
2 10098  90.0000 288.0000 0000000   0.0000 108.0000 15.59190035    15
CTC1_L_00241025-04
1 10099U 24358NM  26075.70032407  .00000000  00000+0  00000-0 0  9993
2 10099  90.0000 288.0000 0000000   0.0000 198.0000 15.59190035    15
CTC1_L_00241026-01
1 10100U 25659Q   26075.70032407  .00000000  00000+0  00000-0 0  9991
2 10100  90.0000 300.0000 0000000   0.0000 300.0000 15.59190035    18
CTC1_L_00241026-02
1 10101U 24377YH  26075.70032407  .00000000  00000+0  00000-0 0  9998
2 10101  90.0000 300.0000 0000000   0.0000  30.0000 15.59190035    19
CTC1_L_00241026-03
1 10102U 25990VC  26075.70032407  .00000000  00000+0  00000-0 0  9991
2 10102  90.0000 300.0000 0000000   0.0000 120.0000 15.59190035    10
CTC1_L_00241026-04
1 10103U 23473NC  26075.70032407  .00000000  00000+0  00000-0 0  9996
2 10103  90.0000 300.0000 0000000   0.0000 210.0000 15.59190035    11
CTC1_L_00241027-01
1 10104U 25199Q   26075.70032407  .00000000  00000+0  00000-0 0  9994
2 10104  90.0000 312.0000 0000000   0.0000 312.0000 15.59190035    18
CTC1_L_00241027-02
1 10105U 24077NA  26075.70032407  .00000000  00000+0  00000-0 0  9999
2 10105  90.0000 312.0000 0000000   0.0000  42.0000 15.59190035    19
CTC1_L_00241027-03
1 10106U 26615LY  26075.70032407  .00000000  00000+0  00000-0 0  9990
2 10106  90.0000 312.0000 0000000   0.0000 132.0000 15.59190035    10
CTC1_L_00241027-04
1 10107U 23688VO  26075.70032407  .00000000  00000+0  00000-0 0  9998
2 10107  90.0000 312.0000 0000000   0.0000 222.0000 15.59190035    11
CTC1_L_00241028-01
1 10108U 26038XN  26075.70032407  .00000000  00000+0  00000-0 0  9991
2 10108  90.0000 324.0000 0000000   0.0000 324.0000 15.59190035    18
CTC1_L_00241028-02
1 10109U 25859UY  26075.70032407  .00000000  00000+0  00000-0 0  9992
2 10109  90.0000 324.0000 0000000   0.0000  54.0000 15.59190035    19
CTC1_L_00241028-03
1 10110U 23461PL  26075.70032407  .00000000  00000+0  00000-0 0  9991
2 10110  90.0000 324.0000 0000000   0.0000 144.0000 15.59190035    11
CTC1_L_00241028-04
1 10111U 25012XG  26075.70032407  .00000000  00000+0  00000-0 0  9996
2 10111  90.0000 324.0000 0000000   0.0000 234.0000 15.59190035    12
CTC1_L_00241029-01
1 10112U 24455YR  26075.70032407  .00000000  00000+0  00000-0 0  9997
2 10112  90.0000 336.0000 0000000   0.0000 336.0000 15.59190035    19
CTC1_L_00241029-02
1 10113U 22236RG  26075.70032407  .00000000  00000+0  00000-0 0  9993
2 10113  90.0000 336.0000 0000000   0.0000  66.0000 15.59190035    10
CTC1_L_00241029-03
1 10114U 24380XW  26075.70032407  .00000000  00000+0  00000-0 0  9996
2 10114  90.0000 336.0000 0000000   0.0000 156.0000 15.59190035    11
CTC1_L_00241029-04
1 10115U 24997BT  26075.70032407  .00000000  00000+0  00000-0 0  9991
2 10115  90.0000 336.0000 0000000   0.0000 246.0000 15.59190035    12
CTC1_L_00241030-01
1 10116U 24194DW  26075.70032407  .00000000  00000+0  00000-0 0  9991
2 10116  90.0000 348.0000 0000000   0.0000 348.0000 15.59190035    19
CTC1_L_00241030-02
1 10117U 22897QO  26075.70032407  .00000000  00000+0  00000-0 0  9990
2 10117  90.0000 348.0000 0000000   0.0000  78.0000 15.59190035    10
CTC1_L_00241030-03
1 10118U 22918K   26075.70032407  .00000000  00000+0  00000-0 0  9995
2 10118  90.0000 348.0000 0000000   0.0000 168.0000 15.59190035    11
CTC1_L_00241030-04
1 10119U 24612NB  26075.70032407  .00000000  00000+0  00000-0 0  9999
2 10119  90.0000 348.0000 0000000   0.0000 258.0000 15.59190035    12
